KAITUO 1B               
1 40912U 15049P   18027.06899947  .00001296  00000-0  66101-4 0  9991
2 40912  97.4513  36.4242 0016650 137.2563 269.7438 15.18401488130253
TIANWANG 1C (TW-1C)     
1 40926U 15051B   18027.53707792  .00006977  00000-0  14061-3 0  9995
2 40926  97.2031  70.6161 0012660  74.3716  30.3249 15.46790791131554
TIANWANG 1B (TW-1B)     
1 40927U 15051C   18027.58210330  .00007025  00000-0  14735-3 0  9991
2 40927  97.2120  70.5701 0012499  84.4257  42.8827 15.45617449131484
TIANWANG 1A (TW-1A)     
1 40928U 15051D   18026.85290745  .00002837  00000-0  78203-4 0  9996
2 40928  97.2027  63.5770 0014034 108.6980 338.9180 15.37852731131058
LAPAN-A2 (IO-86)        
1 40931U 15052B   18026.55175240  .00000501  00000-0 -19222-4 0  9993
2 40931   5.9999  80.0246 0012358 165.3096 194.8684 14.76561000126031
LQSAT                   
1 40958U 15057A   18027.48537170  .00000016  00000-0  10170-4 0  9997
2 40958  97.9559 103.6220 0019766  69.4796 290.8532 14.73013170124133
CHUBUSAT-2              
1 41338U 16012B   18027.50060246  .00000336  00000-0  19570-4 0  9998
2 41338  31.0032 127.4450 0013754 120.1348 240.0652 14.99910330106692
CHUBUSAT-3              
1 41339U 16012C   18027.39907734  .00000367  00000-0  21904-4 0  9996
2 41339  31.0075 126.8886 0013406 125.9820 234.2073 15.00102573106662
OUFTI-1                 
1 41458U 16025C   18027.49978112  .00001835  00000-0  10056-3 0  9997
2 41458  98.1543  82.7321 0170368 259.1939  99.0097 15.04185255 96285
E-ST@R-II               
1 41459U 16025D   18027.41667622  .00001918  00000-0  10534-3 0  9994
2 41459  98.1563  82.5376 0170935 259.9148  98.2762 15.03963827 96262
AAUSAT 4                
1 41460U 16025E   18027.38799560  .00001454  00000-0  80711-4 0  9999
2 41460  98.1495  82.8095 0162074 256.9945 101.3136 15.05210143 96300
NUSAT 1 (LO-87)         
1 41557U 16033B   18027.44775936  .00001205  00000-0  46891-4 0  9998
2 41557  97.4466 111.8893 0012432 298.3807  61.6178 15.27944245 92665
BEESAT-4                
1 41619U 16040W   18026.90555911  .00001271  00000-0  59179-4 0  9990
2 41619  97.4347  91.9040 0011944  13.6939 346.4619 15.21693074 76600
PRATHAM                 
1 41783U 16059A   18026.69102173  .00000034  00000-0  15979-4 0  9992
2 41783  98.1383  90.3969 0033776 177.7208 182.4154 14.62896519 71274
ALSAT 1N                
1 41789U 16059G   18027.38215635  .00000091  00000-0  26477-4 0  9991
2 41789  98.1380  92.0184 0028633 167.4840 192.7081 14.64122418 71410
NAYIF-1 (EO-88)         
1 42017U 17008BX  18026.88339126  .00001450  00000-0  62839-4 0  9999
2 42017  97.4674  92.6859 0007391 145.7113 214.4602 15.23979926 52542
LILACSAT-1              
1 42725U 98067ME  18027.47768865  .00017040  00000-0  18778-3 0  9995
2 42725  51.6382 352.3094 0006061  68.3480 291.8159 15.63218871 38474
MAX VALIER SAT          
1 42778U 17036P   18027.47335430  .00000917  00000-0  44419-4 0  9995
2 42778  97.4236  89.4012 0012385 195.5266 164.5591 15.21000036 33115
FOX-1B (AO-91)          
1 43017U 17073E   18026.37850618  .00001081  00000-0  90299-4 0  9991
2 43017  97.6982 323.5190 0260920  13.5316 347.2717 14.77862707 10167
FOX-1D (AO-92)          
1 43137U 18004AC  18026.73137396  .00000982  00000-0  45630-4 0  9998
2 43137  97.5539  88.9234 0008392 228.9931 131.0580 15.22387394  2181
